[{"OBJECT_NAME":"SITRO-AIS 20","OBJECT_ID":"2024-199Z","EPOCH":"2026-03-09T22:53:15.769536","MEAN_MOTION":14.97385198,"ECCENTRICITY":0.00069441,"INCLINATION":97.3309,"RA_OF_ASC_NODE":274.6556,"ARG_OF_PERICENTER":50.5148,"MEAN_ANOMALY":309.6689,"EPHEMERIS_TYPE":0,"CLASSIFICATION_TYPE":"U","NORAD_CAT_ID":61758,"ELEMENT_SET_NO":999,"REV_AT_EPOCH":12028,"BSTAR":0.00032349417,"MEAN_MOTION_DOT":3.708e-5,"MEAN_MOTION_DDOT":0},{"OBJECT_NAME":"STARLINK-34499","OBJECT_ID":"2025-142P","EPOCH":"2026-03-09T21:26:47.282784","MEAN_MOTION":14.98335104,"ECCENTRICITY":0.00027625,"INCLINATION":70.0016,"RA_OF_ASC_NODE":313.8245,"ARG_OF_PERICENTER":269.3887,"MEAN_ANOMALY":90.6956,"EPHEMERIS_TYPE":0,"CLASSIFICATION_TYPE":"U","NORAD_CAT_ID":64709,"ELEMENT_SET_NO":999,"REV_AT_EPOCH":3949,"BSTAR":0.00021482028,"MEAN_MOTION_DOT":2.471e-5,"MEAN_MOTION_DDOT":0}]
